1 40069U 14037A   22027.46783162 -.00000022  00000-0  90737-5 0  9990
2 40069  98.4430  51.6265 0006153  23.0530 337.0932 14.20695780391846